#cP2011  8  2  0  0  0.00000000      96 ORBIT IGS08 HLM  IGS
## 1647 172800.00000000   900.00000000 55775 0.0000000000000
+   32   G01G02G03G04G05G06G07G08G09G10G11G12G13G14G15G16G17
+        G18G19G20G21G22G23G24G25G26G27G28G29G30G31G32  0  0
+          0  0  0  0  0  0  0  0  0  0  0  0  0  0  0  0  0
+          0  0  0  0  0  0  0  0  0  0  0  0  0  0  0  0  0
+          0  0  0  0  0  0  0  0  0  0  0  0  0  0  0  0  0
++         5  2  3  2  2  2  2  2  2  2  2  2  2  2  2  2  2
++         2  2  2  2  2  2  2  2  3  2  2  2  3  2  2  0  0
++         0  0  0  0  0  0  0  0  0  0  0  0  0  0  0  0  0
++         0  0  0  0  0  0  0  0  0  0  0  0  0  0  0  0  0
++         0  0  0  0  0  0  0  0  0  0  0  0  0  0  0  0  0
%c G  cc GPS ccc cccc cccc cccc cccc ccccc ccccc ccccc ccccc
%c cc cc ccc ccc cccc cccc cccc cccc ccccc ccccc ccccc ccccc
%f  1.2500000  1.025000000  0.00000000000  0.000000000000000
%f  0.0000000  0.000000000  0.00000000000  0.000000000000000
%i    0    0    0    0      0      0      0      0         0
%i    0    0    0    0      0      0      0      0         0
/* FINAL ORBIT COMBINATION FROM WEIGHTED AVERAGE OF:        
/* cod emr esa gfz grg jpl mit ngs sio                      
/* REFERENCED TO IGS TIME (IGST) AND TO WEIGHTED MEAN POLE: 
/* PCV:IGS08_1648 OL/AL:FES2004  NONE     Y  ORB:CMB CLK:CMB
*  2011  8  2 15  0  0.00000000
PG01  25388.271749   7614.105430   4229.650730     -8.582901 12 10  4  92       
PG02  -4761.600381  15062.818863  21385.720811    349.486093  4  5  6  98       
PG03   8381.207074 -23789.857463  -8228.963227    749.768027  9  7  6  54       
PG04 -20247.105973   7624.234969  15414.211776    189.891154  5  6  3 119       
PG05   -154.457863  23963.788293  11323.357757   -198.199568  7  7  5 119       
PG06  13517.390850 -22319.110152  -4046.514662   -107.874216  8  8  5 143       
PG07 -26040.596244  -5790.006400    769.094253     20.357532  5  6  5 139       
PG08 -25362.537936  -1355.636436  -8673.568530      8.673958  4  7     91       
PG09  14484.651052  14360.393389 -17557.799797     96.647241  5  5  5 117       
PG10 -12185.018400  10720.314895  20741.625828     -8.722820  4  6  4 130       
PG11 -13011.912923 -14315.833758 -18655.438061   -173.442199  5  6  5 114       
PG12  12022.718656  22923.767769   6361.591897     13.212876  5  2  3  94       
PG13 -15962.737943  -3517.048323  20810.066067    258.263209  4  5  2 114       
PG14  21040.439385 -13669.983279  -8310.987655    164.921395  8  7  1 109       
PG15   2358.255698  18385.703180 -18953.072091   -112.742413  5  3  3 147       
PG16    256.646131 -24094.330911  10840.611882   -189.287410  8  6  6 110       
PG17 -20627.917122  14669.351646  -7515.596334    180.526233  6  6  5  87       
PG18  17076.257105   6761.772028 -18977.005043    150.289038  6  6  5 111       
PG19   1928.227668 -19395.522764 -17889.993652   -168.670712  6  5  2 118       
PG20 -14322.318626 -21004.635330   7655.395116     51.294291  5  4  3 112       
PG21  26498.469373   4133.362038  -1549.768471   -162.007236  7  8  4 123       
PG22  13793.530092  -8193.144710 -20977.571055    145.744595  5  6  4 112       
PG23  -9159.466981 -12326.953988  21652.011504    287.167532  4  4  2 129       
PG24 -17612.256267 -14549.425968 -13749.149115    411.935395  6  5  3 116       
PG25  16511.753669  13582.225620  15748.123669     12.051724  5  7  6 106       
PG26  -9395.419956  21320.945307 -12962.014921   -110.632002  8  7  9  98       
PG27   9510.043945  14584.443264 -19519.420375    290.755003  6  4  4  94       
PG28 -14238.778364   3539.173610 -21624.073016     56.496852  6  6  7 104       
PG29  15928.948017   4268.975931  20883.683110    228.156002  5  5  5 112       
PG30   6461.614820 -17953.764265  18051.111207     32.056937  6  9  7 149       
PG31  17510.246687  -8884.003801  18185.133475    120.349067  8  7  6 134       
PG32  -7673.379814 -25633.821042   1663.292357   -303.187369  7  6  4 111       
*  2011  8  2 15 15  0.00000000
PG01  24734.992321   7740.651420   6974.995717     -8.581648 12  9     86       
PG02  -7150.862253  14659.432019  20951.313770    349.487722  5  5  6  99       
PG03   9065.635410 -24249.307766  -5570.487314    749.772284  9  8  6  35       
PG04 -21864.523078   7144.036802  13355.166291    189.901178  5  6  3 113       
PG05   -889.506136  22708.886011  13645.780435   -198.204549  7  7  5 121       
PG06  13982.753566 -22379.973843  -1247.151070   -107.864336  7  7  5 140       
PG07 -25762.539842  -5942.767953   3624.563127     20.358951  4  5  5 139       
PG08 -26137.657140  -1655.198548  -5941.142446      8.674030  4  7  1 113       
PG09  12492.261120  14178.706092 -19212.576152     96.649436  5  5  5 111       
PG10 -13084.090736   8430.503518  21273.007156     -8.724901  4  7  4 128       
PG11 -10886.455854 -14686.702492 -19686.685672   -173.445495  5  6  4 103       
PG12  12032.980579  23518.857804   3560.559285     13.215293  5  1  3  96       
PG13 -14303.293652  -5317.913152  21607.148264    258.261665  4  5  2 120       
PG14  20422.446952 -12712.530944 -10924.655707    164.923205  8  7  1 104       
PG15    945.709691  19937.288241 -17432.827885   -112.740542  6  3  3 144       
PG16    890.314958 -22847.483645  13267.279381   -189.289568  8  6  6 115       
PG17 -20141.803943  13723.479645 -10137.808998    180.525017  6  7  5 101       
PG18  17669.411156   8835.763223 -17588.118974    150.290477  6  6  5 113       
PG19   3412.660266 -20681.687129 -16107.005219   -168.674103  6  6  2 112       
PG20 -14322.294015 -21811.820493   4987.639109     51.294931  6  5  3 120       
PG21  26514.116784   4431.053746   1211.796990   -162.009346  6  7  3 122       
PG22  14659.511576  -5889.080220 -21171.370965    145.744203  4  6  3 111       
PG23  -7550.433520 -14172.569748  21104.802661    287.165224  4  5  3 129       
PG24 -15918.350231 -14387.120294 -15796.576210    411.938174  6  4  4 126       
PG25  16968.565758  15212.926292  13636.090667     12.053267  5  7  5 115       
PG26 -10387.469063  22127.261317 -10469.727300   -110.642778  9  7  9  98       
PG27   7103.397442  14384.259026 -20594.727645    290.759941  6  4  4  92       
PG28 -15043.694128   1100.952923 -21367.670328     56.499507  6  5  6 107       
PG29  14382.796842   6121.712311  21540.875026    228.158867  4  5  5 117       
PG30   7470.002784 -15964.927195  19445.812606     32.060052  5  9  7 146       
PG31  19396.473084  -8453.779883  16384.830520    120.354189  8  7  6 132       
PG32  -7440.689946 -25700.168706  -1153.865120   -303.193883  7  6  4 108       
*  2011  8  2 15 30  0.00000000
PG01  23792.293950   7876.124883   9604.002679     -8.580724 12  8  4  94       
PG02  -9492.595163  14377.263153  20156.059640    349.489023  6  6  6  98       
PG03   9586.660388 -24470.680117  -2815.318423    749.777164  9  8  6  32       
PG04 -23257.040946   6769.802863  11067.232732    189.911501  5  6  2 124       
PG05  -1790.303408  21265.602414  15731.988467   -198.209707  7  7  5 115       
PG06  14271.602986 -22194.783977   1574.038482   -107.854298  7  8  6 137       
PG07 -25176.471191  -6076.917384   6418.522734     20.360293  4  5  5 139       
PG08 -26622.064053  -1851.512025  -3109.775143      8.675625  5  8  2 114       
PG09  10330.204807  14097.166864 -20550.803210     96.652938  5  5  4 120       
PG10 -14108.935735   6154.804063  21429.940462     -8.725482  4  7  4 126       
PG11  -8682.139981 -15160.808156 -20390.573749   -173.448297  6  6  5 112       
PG12  11948.741750  23819.093274    698.907260     13.217319  5  2  4  78       
PG13 -12702.174295  -7263.206230  22027.895982    258.260109  4  5  2 117       
PG14  19677.572443 -11497.659024 -13347.301341    164.925114  7  7  2  96       
PG15   -280.905222  21402.277029 -15610.581788   -112.739238  6  4  3 146       
PG16   1689.754940 -21393.829072  15462.385080   -189.291692  8  7  6 110       
PG17 -19529.831961  12523.599769 -12582.291071    180.524091  7  7  6  90       
PG18  18290.096358  10713.894826 -15892.771657    150.292373  6  6  4 109       
PG19   4689.039908 -21876.851558 -14042.902629   -168.677751  6  6  2  96       
PG20 -14225.235708 -22343.605727   2234.081612     51.295004  7  6  3 113       
PG21  26241.094854   4691.313679   3953.340393   -162.011713  5  7  3 124       
PG22  15631.902870  -3628.045831 -20994.902440    145.744011  4  6  2 112       
PG23  -6086.984440 -16035.783936  20192.782593    287.162489  5  6  4 129       
PG24 -14003.434815 -14278.327242 -17574.704148    411.940261  6  4  4 118       
PG25  17403.479487  16588.260645  11289.313102     12.054883  5  7  5  99       
PG26 -11150.942928  22764.216334  -7797.949007   -110.654138  9  8  8  99       
PG27   4580.396433  14308.994775 -21296.871381    290.762362  6  5  4  88       
PG28 -15956.056847  -1239.554900 -20726.312925     56.502183  5  5  6  96       
PG29  12903.705013   8094.800460  21829.692525    228.161648  4  4  4 105       
PG30   8643.365693 -13903.134441  20493.741420     32.065177  4  9  6 146       
PG31  21087.467155  -8152.625336  14308.847108    120.359504  7  8  6 130       
PG32  -7104.982256 -25482.360970  -3951.620019   -303.200487  7  6  4 110       
EOF
